sat19299
1 19299U 63014EL  20046.51039129 -.00000724  00000-0 -21717+0 0  9998
2 19299  87.0937 322.1756 0912172 181.9150 177.8090  8.68529822 27730
